IRIDIUM 126             
1 42809U 17039G   25215.49259205  .00000230  00000+0  75007-4 0  9991
2 42809  86.3997 126.4727 0002089  79.5173 280.6258 14.34214772424418
IRIDIUM 124             
1 42810U 17039H   25215.93313278  .00000300  00000+0  83259-4 0  9999
2 42810  86.4446  62.9946 0002157  93.5385 266.6063 14.43280901429357
IRIDIUM 128             
1 42811U 17039J   25215.76239267  .00000013  00000+0 -25568-5 0  9998
2 42811  86.4024 157.8388 0002183  94.0710 266.0735 14.34217771424485
IRIDIUM 121             
1 42812U 17039K   25215.79068477  .00000232  00000+0  75838-4 0  9991
2 42812  86.3996 126.3738 0002231  87.8999 272.2452 14.34218168424336
IRIDIUM 133             
1 42955U 17061A   25215.86387441  .00000211  00000+0  68205-4 0  9994
2 42955  86.4028 157.9061 0002245  85.4856 274.6596 14.34217657409296
IRIDIUM 100             
1 42956U 17061B   25215.78776255  .00000015  00000+0 -16263-5 0  9992
2 42956  86.4028 157.8643 0001899  85.3778 274.7634 14.34217631409283
IRIDIUM 122             
1 42957U 17061C   25215.68628127  .00000002  00000+0 -62454-5 0  9995
2 42957  86.4028 157.9058 0002083  84.3708 275.7725 14.34217599409277
IRIDIUM 129             
1 42958U 17061D   25215.78142126  .00000214  00000+0  69328-4 0  9997
2 42958  86.4028 157.9290 0002596  79.4856 280.6632 14.34218625409301
